[{"OBJECT_NAME":"ICEYE-X4","OBJECT_ID":"2019-038D","EPOCH":"2026-03-09T23:53:58.416000","MEAN_MOTION":15.26985132,"ECCENTRICITY":0.00122769,"INCLINATION":97.8888,"RA_OF_ASC_NODE":96.1923,"ARG_OF_PERICENTER":293.9914,"MEAN_ANOMALY":66.0038,"EPHEMERIS_TYPE":0,"CLASSIFICATION_TYPE":"U","NORAD_CAT_ID":44390,"ELEMENT_SET_NO":999,"REV_AT_EPOCH":36665,"BSTAR":0.00049915294,"MEAN_MOTION_DOT":0.00013179,"MEAN_MOTION_DDOT":0},{"OBJECT_NAME":"STARLINK-36459","OBJECT_ID":"2026-005Z","EPOCH":"2026-03-08T21:47:44.345760","MEAN_MOTION":15.27551516,"ECCENTRICITY":0.00014883,"INCLINATION":43.0005,"RA_OF_ASC_NODE":242.6774,"ARG_OF_PERICENTER":264.8725,"MEAN_ANOMALY":95.1957,"EPHEMERIS_TYPE":0,"CLASSIFICATION_TYPE":"U","NORAD_CAT_ID":67427,"ELEMENT_SET_NO":999,"REV_AT_EPOCH":856,"BSTAR":0.0012378071,"MEAN_MOTION_DOT":0.00033927,"MEAN_MOTION_DDOT":0}]
